<?xml version="1.0" encoding="UTF-8"?>
<ndm xmlns:xsi="http://www.w3.org/2001/XMLSchema-instance" xsi:noNamespaceSchemaLocation="https://sanaregistry.org/r/ndmxml_unqualified/ndmxml-2.0.0-master-2.0.xsd">
<omm id="CCSDS_OMM_VERS" version="2.0">
<header><CREATION_DATE/><ORIGINATOR/></header><body><segment><metadata><OBJECT_NAME>ORBCOMM FM115</OBJECT_NAME><OBJECT_ID>2015-081H</OBJECT_ID><CENTER_NAME>EARTH</CENTER_NAME><REF_FRAME>TEME</REF_FRAME><TIME_SYSTEM>UTC</TIME_SYSTEM><MEAN_ELEMENT_THEORY>SGP4</MEAN_ELEMENT_THEORY></metadata><data><meanElements><EPOCH>2025-01-29T21:30:18.974880</EPOCH><MEAN_MOTION>14.62019093</MEAN_MOTION><ECCENTRICITY>.0000131</ECCENTRICITY><INCLINATION>46.9994</INCLINATION><RA_OF_ASC_NODE>337.0638</RA_OF_ASC_NODE><ARG_OF_PERICENTER>181.5710</ARG_OF_PERICENTER><MEAN_ANOMALY>178.5176</MEAN_ANOMALY></meanElements><tleParameters><EPHEMERIS_TYPE>0</EPHEMERIS_TYPE><CLASSIFICATION_TYPE>U</CLASSIFICATION_TYPE><NORAD_CAT_ID>41186</NORAD_CAT_ID><ELEMENT_SET_NO>999</ELEMENT_SET_NO><REV_AT_EPOCH>48753</REV_AT_EPOCH><BSTAR>.42982E-3</BSTAR><MEAN_MOTION_DOT>.2003E-4</MEAN_MOTION_DOT><MEAN_MOTION_DDOT>0</MEAN_MOTION_DDOT></tleParameters></data></segment></body></omm>
<omm id="CCSDS_OMM_VERS" version="2.0">
<header><CREATION_DATE/><ORIGINATOR/></header><body><segment><metadata><OBJECT_NAME>ORBCOMM FM108</OBJECT_NAME><OBJECT_ID>2015-081J</OBJECT_ID><CENTER_NAME>EARTH</CENTER_NAME><REF_FRAME>TEME</REF_FRAME><TIME_SYSTEM>UTC</TIME_SYSTEM><MEAN_ELEMENT_THEORY>SGP4</MEAN_ELEMENT_THEORY></metadata><data><meanElements><EPOCH>2025-01-29T17:50:06.127872</EPOCH><MEAN_MOTION>14.57705358</MEAN_MOTION><ECCENTRICITY>.0002627</ECCENTRICITY><INCLINATION>47.0057</INCLINATION><RA_OF_ASC_NODE>40.5947</RA_OF_ASC_NODE><ARG_OF_PERICENTER>8.4721</ARG_OF_PERICENTER><MEAN_ANOMALY>351.6208</MEAN_ANOMALY></meanElements><tleParameters><EPHEMERIS_TYPE>0</EPHEMERIS_TYPE><CLASSIFICATION_TYPE>U</CLASSIFICATION_TYPE><NORAD_CAT_ID>41187</NORAD_CAT_ID><ELEMENT_SET_NO>999</ELEMENT_SET_NO><REV_AT_EPOCH>48659</REV_AT_EPOCH><BSTAR>.41973E-3</BSTAR><MEAN_MOTION_DOT>.1766E-4</MEAN_MOTION_DOT><MEAN_MOTION_DDOT>0</MEAN_MOTION_DDOT></tleParameters></data></segment></body></omm>
<omm id="CCSDS_OMM_VERS" version="2.0">
<header><CREATION_DATE/><ORIGINATOR/></header><body><segment><metadata><OBJECT_NAME>ORBCOMM FM117</OBJECT_NAME><OBJECT_ID>2015-081K</OBJECT_ID><CENTER_NAME>EARTH</CENTER_NAME><REF_FRAME>TEME</REF_FRAME><TIME_SYSTEM>UTC</TIME_SYSTEM><MEAN_ELEMENT_THEORY>SGP4</MEAN_ELEMENT_THEORY></metadata><data><meanElements><EPOCH>2025-01-30T01:15:13.968000</EPOCH><MEAN_MOTION>14.57716936</MEAN_MOTION><ECCENTRICITY>.0002764</ECCENTRICITY><INCLINATION>47.0007</INCLINATION><RA_OF_ASC_NODE>37.9458</RA_OF_ASC_NODE><ARG_OF_PERICENTER>21.6854</ARG_OF_PERICENTER><MEAN_ANOMALY>338.4148</MEAN_ANOMALY></meanElements><tleParameters><EPHEMERIS_TYPE>0</EPHEMERIS_TYPE><CLASSIFICATION_TYPE>U</CLASSIFICATION_TYPE><NORAD_CAT_ID>41188</NORAD_CAT_ID><ELEMENT_SET_NO>999</ELEMENT_SET_NO><REV_AT_EPOCH>48673</REV_AT_EPOCH><BSTAR>.54615E-3</BSTAR><MEAN_MOTION_DOT>.2349E-4</MEAN_MOTION_DOT><MEAN_MOTION_DDOT>0</MEAN_MOTION_DDOT></tleParameters></data></segment></body></omm>
<omm id="CCSDS_OMM_VERS" version="2.0">
<header><CREATION_DATE/><ORIGINATOR/></header><body><segment><metadata><OBJECT_NAME>ORBCOMM FM116</OBJECT_NAME><OBJECT_ID>2015-081L</OBJECT_ID><CENTER_NAME>EARTH</CENTER_NAME><REF_FRAME>TEME</REF_FRAME><TIME_SYSTEM>UTC</TIME_SYSTEM><MEAN_ELEMENT_THEORY>SGP4</MEAN_ELEMENT_THEORY></metadata><data><meanElements><EPOCH>2025-01-29T16:47:50.189280</EPOCH><MEAN_MOTION>14.57716640</MEAN_MOTION><ECCENTRICITY>.0001401</ECCENTRICITY><INCLINATION>47.0010</INCLINATION><RA_OF_ASC_NODE>129.4615</RA_OF_ASC_NODE><ARG_OF_PERICENTER>180.1822</ARG_OF_PERICENTER><MEAN_ANOMALY>179.9063</MEAN_ANOMALY></meanElements><tleParameters><EPHEMERIS_TYPE>0</EPHEMERIS_TYPE><CLASSIFICATION_TYPE>U</CLASSIFICATION_TYPE><NORAD_CAT_ID>41189</NORAD_CAT_ID><ELEMENT_SET_NO>999</ELEMENT_SET_NO><REV_AT_EPOCH>48544</REV_AT_EPOCH><BSTAR>.52661E-3</BSTAR><MEAN_MOTION_DOT>.2259E-4</MEAN_MOTION_DOT><MEAN_MOTION_DDOT>0</MEAN_MOTION_DDOT></tleParameters></data></segment></body></omm>
</ndm>
