ORBCOMM FM115           
1 41186U 15081H   25029.89605295  .00002003  00000+0  42982-3 0  9999
2 41186  46.9994 337.0638 0000131 181.5710 178.5176 14.62019093487538
ORBCOMM FM108           
1 41187U 15081J   25029.74312648  .00001766  00000+0  41973-3 0  9995
2 41187  47.0057  40.5947 0002627   8.4721 351.6208 14.57705358486596
ORBCOMM FM117           
1 41188U 15081K   25030.05224500  .00002349  00000+0  54615-3 0  9996
2 41188  47.0007  37.9458 0002764  21.6854 338.4148 14.57716936486731
ORBCOMM FM116           
1 41189U 15081L   25029.69988645  .00002259  00000+0  52661-3 0  9991
2 41189  47.0010 129.4615 0001401 180.1822 179.9063 14.57716640485444
